CZ-4B R/B               
1 28059U 03049C   17252.29027020  .00000064  00000-0  27361-4 0  9992
2 28059  98.5484 139.8592 0050074 352.2150 115.7015 14.52496894735899
CZ-2C R/B               
1 28222U 04012C   17251.97492539  .00001485  00000-0  94864-4 0  9990
2 28222  97.5331 206.9297 0046580 258.2123 141.8804 15.09349081733219
SL-16 R/B               
1 28353U 04021B   17252.24943032 -.00000204  00000-0 -82125-4 0  9992
2 28353  70.9992 262.1728 0002815  50.6540 309.4832 14.14202407684038
CZ-2C R/B               
1 28480U 04046B   17252.24437101  .00000058  00000-0  37788-4 0  9995
2 28480  98.1963 343.0219 0141474 336.9774  41.1448 14.25646834666195
ARIANE 5 R/B            
1 28499U 04049H   17252.22550639  .00000188  00000-0  30929-4 0  9992
2 28499  98.0755 335.7164 0091286 304.7493  73.0250 14.79836718686385
CZ-2D R/B               
1 28738U 05024B   17252.29345602  .00001508  00000-0  93303-4 0  9993
2 28738  97.4901 287.4944 0013777  77.3678 282.9092 15.11240917668497
SUZAKU (ASTRO-EII)      
1 28773U 05025A   17252.01579584  .00003011  00000-0  14853-3 0  9994
2 28773  31.3827 112.7576 0004423 109.4348 250.6777 15.15987326670109
ALOS (DAICHI)           
1 28931U 06002A   17252.29851676  .00000353  00000-0  78426-4 0  9994
2 28931  97.8390 275.4285 0002567  71.3206 288.8279 14.62388248619751
H-2A R/B                
1 28932U 06002B   17252.30409123  .00001628  00000-0  15677-3 0  9997
2 28932  98.2059 178.5797 0090792  36.5570 114.6858 14.91448139630237
AKARI (ASTRO-F)         
1 28939U 06005A   17252.21054732  .00008863  00000-0  26893-3 0  9999
2 28939  98.2447 102.4526 0104315 254.8121 104.1562 15.29120317625939
RESURS-DK 1             
1 29228U 06021A   17252.47589008  .00000498  00000-0  45151-4 0  9991
2 29228  69.9338 243.6236 0006916 235.5476 124.5032 15.02198215620754
GENESIS 1               
1 29252U 06029A   17251.68621779  .00001772  00000-0  99213-4 0  9994
2 29252  64.5072  12.7880 0023689 312.9889  46.9247 15.16902927614410
CZ-4B R/B               
1 29507U 06046C   17252.11762593  .00001067  00000-0  88492-4 0  9999
2 29507  97.7936 259.7440 0048292 318.1559  41.5977 15.00158643593579
CZ-2C R/B               
1 31114U 07010B   17252.23417999  .00000022  00000-0  29489-4 0  9999
2 31114  98.3884 150.3205 0059305 332.7292  27.0775 14.19250540539420
COSMO-SKYMED 1          
1 31598U 07023A   17252.42665570  .00000464  00000-0  64861-4 0  9993
2 31598  97.8885  74.9157 0001576  78.3739 281.7659 14.82156675554920
GENESIS 2               
1 31789U 07028A   17252.03510727  .00002129  00000-0  11962-3 0  9993
2 31789  64.5057  49.8857 0021174 218.2679 141.6941 15.16168072561621
COSMOS 2428             
1 31792U 07029A   17252.48824592  .00000315  00000-0  19716-3 0  9995
2 31792  70.9242 235.1430 0008483 170.3260 189.8026 14.12326435525971
SL-16 R/B               
1 31793U 07029B   17252.47069042 -.00000069  00000-0 -10828-4 0  9990
2 31793  70.9739 212.1224 0002182 277.8450 212.8565 14.14381604526633
CZ-4B DEB               
1 33411U 08053D   17252.43660466  .00176088  00000-0  12803-2 0  9996
2 33411  97.3947 305.6942 0000755   0.5559 359.5706 15.72824500489564
KORONAS-FOTON           
1 33504U 09003A   17252.18932220  .00001715  00000-0  90040-4 0  9992
2 33504  82.4445 149.5158 0019411 175.0763 185.0663 15.14910443474097
TIANGONG 1              
1 37820U 11053A   17252.47515630  .00077214  00000-0  33289-3 0  9997
2 37820  42.7635  42.2548 0020078 315.9148  98.9276 15.83704121341317
H-2A R/B                
1 38341U 12025E   17252.20710582  .00000592  00000-0  77500-4 0  9990
2 38341  98.4302 333.9077 0054786 247.5901 111.9502 14.83614713287337
CUSAT 2 & FALCON 9 R/B  
1 39271U 13055G   17252.18317805  .00013250  00000-0  34258-3 0  9992
2 39271  80.9654 268.2168 0627793 313.6869  41.3881 14.38336497204693
ALOS-2                  
1 39766U 14029A   17252.18260078  .00001020  00000-0  14350-3 0  9995
2 39766  97.9231 348.3040 0001800 101.6565 258.4868 14.79473732178025
SL-27 R/B               
1 40354U 14084B   17252.24928995  .00003931  00000-0  10220-3 0  9992
2 40354  74.7418 319.5567 0041025 298.7575  60.9517 15.38382222152383
ASTRO-H (HITOMI)        
1 41337U 16012A   17252.26349101  .00000698  00000-0  50204-4 0  9999
2 41337  31.0062 306.0212 0012415 151.2652 208.8669 14.98346265 85540
TIANGONG-2              
1 41765U 16057A   17252.27287959  .00012496  00000-0  16288-3 0  9998
2 41765  42.7828 215.4565 0001546 112.8894  23.3905 15.58637659 56102
SHENZHOU-11 MODULE      
1 41868U 16061G   17252.10642603  .00017854  00000-0  16750-3 0  9997
2 41868  42.7947 209.3071 0005615 332.1493  90.6999 15.66836543 46106
TIANZHOU 1              
1 42684U 17021A   17252.29057067  .00013421  00000-0  17707-3 0  9994
2 42684  42.7838 215.5487 0000770  50.9607 104.6039 15.58255340 22130
